      2.10          N: GNSS NAV DATA                        RINEX VERSION / TYPE
fic2rin                                 09/07/2020 00:17:41 PGM / RUN BY / DATE
                                                            END OF HEADER
17 20  9  6  2  0  0.0 3.217724151909e-04 5.570655048359e-12 0.000000000000e+00
    8.400000000000e+01-2.556250000000e+01 3.753013470932e-09-2.070107515053e+00
   -1.357868313789e-06 1.338400738314e-02 1.069158315659e-05 5.153750667572e+03
    7.200000000000e+03 2.793967723846e-07 2.008951857366e-01 1.061707735062e-07
    9.839085732271e-01 1.855937500000e+02-1.637779027110e+00-7.443881496115e-09
   -2.610823036973e-10 1.000000000000e+00 2.122000000000e+03 0.000000000000e+00
    2.400000000000e+00 0.000000000000e+00-1.117587089539e-08 8.400000000000e+01
    0.000000000000e+00 4.000000000000e+00
18 20  9  6  2  0  0.0 2.847556024790e-04 7.389644451905e-12 0.000000000000e+00
    1.210000000000e+02 4.662500000000e+01 4.346252467432e-09 2.616395024589e+00
    2.464279532433e-06 9.908200008795e-04 8.266419172287e-06 5.153714879990e+03
    7.200000000000e+03 1.303851604462e-08 1.213292371092e+00 1.862645149231e-09
    9.647369059874e-01 2.216875000000e+02 2.704368358151e+00-8.031405968867e-09
    4.260891768959e-10 1.000000000000e+00 2.122000000000e+03 0.000000000000e+00
    2.400000000000e+00 0.000000000000e+00-8.381903171539e-09 3.770000000000e+02
    0.000000000000e+00 4.000000000000e+00
23 20  9  6  2  0  0.0 5.613546818495e-05 6.707523425575e-12 0.000000000000e+00
    1.730000000000e+02-2.618750000000e+01 4.839844456091e-09 2.389155750521e+00
   -1.411885023117e-06 9.877529228106e-04 4.431232810020e-06 5.153633871078e+03
    7.200000000000e+03-1.303851604462e-08 2.212754705430e+00 1.303851604462e-08
    9.614195739329e-01 2.951562500000e+02 1.814423918702e+00-8.326418257313e-09
   -9.286101089098e-12 1.000000000000e+00 2.122000000000e+03 0.000000000000e+00
    6.144000000000e+03 6.300000000000e+01-8.381903171539e-09 6.850000000000e+02
    0.000000000000e+00 4.000000000000e+00
24 20  9  6  1 59 28.0-1.818547025323e-05-5.684341886081e-13 0.000000000000e+00
    6.800000000000e+01 8.268750000000e+01 5.155214735386e-09 2.445545910140e+00
    4.198402166367e-06 1.000454381574e-02 9.085983037949e-06 5.153642858505e+03
    7.168000000000e+03-1.154839992523e-07-2.015326085484e+00-1.695007085800e-07
    9.358589235835e-01 1.895625000000e+02 6.743948171025e-01-8.239986085638e-09
    3.864446684002e-10 1.000000000000e+00 2.122000000000e+03 0.000000000000e+00
    2.400000000000e+00 0.000000000000e+00 2.793967723846e-09 6.800000000000e+01
    3.000000000000e+01 4.000000000000e+00
 6 20  9  6  1 59 44.0-3.230264410377e-04-3.637978807092e-12 0.000000000000e+00
    2.200000000000e+01 5.053125000000e+01 3.921591921473e-09 2.480660155784e+00
    2.725049853325e-06 1.765460590832e-03 8.290633559227e-06 5.153607921600e+03
    7.184000000000e+03-6.891787052155e-08 1.189329797823e+00 5.401670932770e-08
    9.806593297688e-01 2.294375000000e+02-1.111259818398e+00-7.758537459942e-09
    4.200174954146e-10 1.000000000000e+00 2.122000000000e+03 0.000000000000e+00
    2.400000000000e+00 0.000000000000e+00 4.190951585770e-09 2.200000000000e+01
    3.000000000000e+01 4.000000000000e+00
 1 20  9  6  2  0  0.0 3.602774813771e-05 3.410605131648e-13 0.000000000000e+00
    5.800000000000e+01 4.487500000000e+01 3.923020552410e-09 2.146171615817e+00
    2.225860953331e-06 1.008742104750e-02 8.072704076767e-06 5.153702693939e+03
    7.200000000000e+03-1.359730958939e-07 1.197579440105e+00-1.918524503708e-07
    9.811204356957e-01 2.347187500000e+02 8.261145704392e-01-7.806039438590e-09
    4.100170788571e-10 1.000000000000e+00 2.122000000000e+03 0.000000000000e+00
    2.400000000000e+00 0.000000000000e+00 5.122274160385e-09 5.800000000000e+01
    3.000000000000e+01 4.000000000000e+00
 3 20  9  6  2  0  0.0-2.910085022449e-04-1.080024958355e-11 0.000000000000e+00
    8.500000000000e+01-2.534375000000e+01 4.672694636487e-09 1.008964366159e+00
   -1.508742570877e-06 3.208369016647e-03 4.507601261139e-06 5.153750669479e+03
    7.200000000000e+03-5.587935447693e-09 2.237824997342e+00 4.470348358154e-08
    9.665852693334e-01 2.943750000000e+02 8.545740982928e-01-8.321418049035e-09
   -5.821671067396e-11 1.000000000000e+00 2.122000000000e+03 0.000000000000e+00
    2.400000000000e+00 0.000000000000e+00 1.862645149231e-09 8.500000000000e+01
    3.000000000000e+01 4.000000000000e+00
10 20  9  6  2  0  0.0-4.471261054277e-04-1.000444171950e-11 0.000000000000e+00
    8.500000000000e+01-2.596875000000e+01 4.732697135832e-09 1.357288006208e-01
   -1.309439539909e-06 5.854288465343e-03 4.582107067108e-06 5.153663805008e+03
    7.200000000000e+03 4.470348358154e-08 2.234827870260e+00 1.005828380585e-07
    9.665111783844e-01 2.950625000000e+02-2.657876874257e+00-8.362848346201e-09
   -9.643258823294e-12 1.000000000000e+00 2.122000000000e+03 0.000000000000e+00
    2.400000000000e+00 0.000000000000e+00 2.328306436539e-09 8.500000000000e+01
    3.000000000000e+01 4.000000000000e+00
 9 20  9  6  2  0  0.0-2.817134372890e-04-5.798028723802e-12 0.000000000000e+00
    8.600000000000e+01-3.162500000000e+01 4.663051377664e-09-1.557319651883e+00
   -1.523643732071e-06 1.727063208818e-03 1.039914786816e-05 5.153666364670e+03
    7.200000000000e+03-4.470348358154e-08-3.014906445126e+00 2.235174179077e-08
    9.533393668227e-01 1.787187500000e+02 1.763433272680e+00-8.047120909172e-09
   -1.282196265764e-10 1.000000000000e+00 2.122000000000e+03 0.000000000000e+00
    2.400000000000e+00 0.000000000000e+00 1.396983861923e-09 8.600000000000e+01
    3.000000000000e+01 4.000000000000e+00
 8 20  9  6  2  0  0.0-4.695728421211e-05-1.250555214938e-12 0.000000000000e+00
    4.800000000000e+01-4.368750000000e+01 4.081598586393e-09-1.828040065298e+00
   -2.229586243629e-06 5.443066824228e-03 9.952113032341e-06 5.153719142914e+03
    7.200000000000e+03-6.519258022308e-08 1.267958717284e-01-2.980232238770e-08
    9.694820343839e-01 1.935937500000e+02-6.422575951211e-02-7.831040479983e-09
   -1.942938074027e-10 1.000000000000e+00 2.122000000000e+03 0.000000000000e+00
    3.400000000000e+00 0.000000000000e+00 5.122274160385e-09 4.800000000000e+01
    3.000000000000e+01 4.000000000000e+00
30 20  9  6  2  0  0.0-2.963361330330e-04-7.275957614183e-12 0.000000000000e+00
    2.200000000000e+01 7.565625000000e+01 5.289506043444e-09 1.407147943829e+00
    4.079192876816e-06 4.790025530383e-03 7.417052984238e-06 5.153598804474e+03
    7.200000000000e+03 1.862645149231e-08-1.920298198139e+00 9.313225746155e-08
    9.377670427443e-01 2.254375000000e+02-2.807509359485e+00-8.501782704804e-09
    2.514390448740e-10 1.000000000000e+00 2.122000000000e+03 0.000000000000e+00
    2.400000000000e+00 0.000000000000e+00 3.725290298462e-09 2.200000000000e+01
    3.000000000000e+01 4.000000000000e+00
26 20  9  6  2  0  0.0 2.739424817264e-04 6.480149750132e-12 0.000000000000e+00
    1.700000000000e+01-1.065625000000e+01 5.298434986799e-09-4.906970145860e-02
   -6.929039955139e-07 4.904829082079e-03 3.550201654434e-06 5.153669111252e+03
    7.200000000000e+03 2.235174179077e-08-9.408112406788e-01 7.264316082001e-08
    9.451342001760e-01 3.004062500000e+02 2.010812572129e-01-8.680004414167e-09
   -2.678683006471e-10 1.000000000000e+00 2.122000000000e+03 0.000000000000e+00
    2.400000000000e+00 0.000000000000e+00 6.984919309616e-09 1.700000000000e+01
    3.000000000000e+01 4.000000000000e+00
27 20  9  6  2  0  0.0-3.888099454343e-04-9.094947017729e-12 0.000000000000e+00
    1.080000000000e+02-4.356250000000e+01 3.844088693152e-09-1.971533218775e+00
   -2.188608050346e-06 8.336894214153e-03 1.004151999950e-05 5.153673013687e+03
    7.200000000000e+03-2.048909664154e-08 1.418908646555e-01-1.341104507446e-07
    9.779524119862e-01 1.957500000000e+02 5.769778748158e-01-7.622103205479e-09
   -2.014369620866e-10 1.000000000000e+00 2.122000000000e+03 0.000000000000e+00
    2.400000000000e+00 0.000000000000e+00 1.862645149231e-09 1.080000000000e+02
    3.000000000000e+01 4.000000000000e+00
25 20  9  6  2  0  0.0 4.511279985309e-05 5.229594535194e-12 0.000000000000e+00
    6.400000000000e+01-1.428125000000e+01 4.929133889640e-09 5.093782780384e-01
   -6.761401891708e-07 9.105280390941e-03 3.885477781296e-06 5.153736841202e+03
    7.200000000000e+03-8.195638656616e-08-9.036254503699e-01 8.754432201385e-08
    9.641243397629e-01 3.050625000000e+02 9.357633657745e-01-8.577500144453e-09
   -3.007268121931e-10 1.000000000000e+00 2.122000000000e+03 0.000000000000e+00
    2.400000000000e+00 0.000000000000e+00 5.587935447693e-09 6.400000000000e+01
    3.000000000000e+01 4.000000000000e+00
32 20  9  6  2  0  0.0 3.426070325077e-04 4.888534022029e-12 0.000000000000e+00
    1.160000000000e+02-3.871875000000e+01 4.544475009911e-09-1.282583876515e+00
   -1.950189471245e-06 4.119049292058e-03 1.072138547897e-05 5.153758161545e+03
    7.200000000000e+03 7.823109626770e-08-3.006055284577e+00-2.048909664154e-08
    9.574200524568e-01 1.700000000000e+02-2.448877703140e+00-7.977475151004e-09
   -1.657211886670e-10 1.000000000000e+00 2.122000000000e+03 0.000000000000e+00
    2.400000000000e+00 0.000000000000e+00 4.656612873077e-10 1.160000000000e+02
    3.000000000000e+01 4.000000000000e+00
13 20  9  6  1 59 44.0 4.258705303073e-05 3.524291969370e-12 0.000000000000e+00
    1.210000000000e+02-1.821875000000e+01 4.216604209919e-09-2.627712888846e+00
   -1.145526766777e-06 4.456023452803e-03 1.158379018307e-05 5.153696769714e+03
    7.184000000000e+03 1.080334186554e-07-2.870506103964e+00-4.470348358154e-08
    9.683591994076e-01 1.589687500000e+02 1.047720582933e+00-7.755680198068e-09
   -7.643175511796e-11 1.000000000000e+00 2.122000000000e+03 0.000000000000e+00
    2.400000000000e+00 0.000000000000e+00-1.117587089539e-08 1.210000000000e+02
    5.400000000000e+02 4.000000000000e+00
